{
  "type": "FeatureCollection",
  "features": [
    {
      "type": "Feature",
      "properties": {
        "norad_id": 30290,
        "name": "FENGYUN 1C DEB",
        "group": "fengyun-1c-debris",
        "lat": 30.049344265956396,
        "lon": 89.97371488813087,
        "alt_km": 631.0378410272706,
        "timestamp": "2025-12-18T10:51:26.081921+00:00",
        "meta_object_name": "FENGYUN 1C DEB",
        "meta_object_id": "1999-025ZB",
        "meta_epoch": "2025-12-17T12:12:41.154624",
        "meta_mean_motion": 14.75205199,
        "meta_eccentricity": 0.00165436,
        "meta_inclination": 102.6224,
        "meta_ra_of_asc_node": 95.9574,
        "meta_arg_of_pericenter": 33.7124,
        "meta_mean_anomaly": 28.6539,
        "meta_ephemeris_type": 0,
        "meta_classification_type": "U",
        "meta_norad_cat_id": 30290,
        "meta_element_set_no": 999,
        "meta_rev_at_epoch": 97949,
        "meta_bstar": 0.0036148558,
        "meta_mean_motion_dot": 0.00024488,
        "meta_mean_motion_ddot": 0,
        "tle_line1": "1 30290U 99025ZB  25351.50880966  .00024488  00000+0  36149-2 0  9997",
        "tle_line2": "2 30290 102.6224  95.9574 0016543  33.7124  28.6539 14.75205199979495"
      },
      "geometry": {
        "type": "Point",
        "coordinates": [
          89.97371488813087,
          30.049344265956396
        ]
      }
    },
    {
      "type": "Feature",
      "properties": {
        "norad_id": 30291,
        "name": "FENGYUN 1C DEB",
        "group": "fengyun-1c-debris",
        "lat": 70.70436555976532,
        "lon": -140.78809529077145,
        "alt_km": 674.6880344441179,
        "timestamp": "2025-12-18T10:51:26.081941+00:00",
        "meta_object_name": "FENGYUN 1C DEB",
        "meta_object_id": "1999-025ZC",
        "meta_epoch": "2025-12-17T15:00:27.713664",
        "meta_mean_motion": 14.55355175,
        "meta_eccentricity": 0.01112305,
        "meta_inclination": 97.2332,
        "meta_ra_of_asc_node": 239.7642,
        "meta_arg_of_pericenter": 3.8828,
        "meta_mean_anomaly": 56.3936,
        "meta_ephemeris_type": 0,
        "meta_classification_type": "U",
        "meta_norad_cat_id": 30291,
        "meta_element_set_no": 999,
        "meta_rev_at_epoch": 97779,
        "meta_bstar": 0.0021400533,
        "meta_mean_motion_dot": 0.00010063,
        "meta_mean_motion_ddot": 0,
        "tle_line1": "1 30291U 99025ZC  25351.62532076  .00010063  00000+0  21401-2 0  9996",
        "tle_line2": "2 30291  97.2332 239.7642 0111230   3.8828  56.3936 14.55355175977795"
      },
      "geometry": {
        "type": "Point",
        "coordinates": [
          -140.78809529077145,
          70.70436555976532
        ]
      }
    },
    {
      "type": "Feature",
      "properties": {
        "norad_id": 30293,
        "name": "FENGYUN 1C DEB",
        "group": "fengyun-1c-debris",
        "lat": -18.240297739970355,
        "lon": 0.8453149101835137,
        "alt_km": 743.572353536586,
        "timestamp": "2025-12-18T10:51:26.081954+00:00",
        "meta_object_name": "FENGYUN 1C DEB",
        "meta_object_id": "1999-025ZE",
        "meta_epoch": "2025-12-17T19:07:11.861184",
        "meta_mean_motion": 14.48972953,
        "meta_eccentricity": 0.00767857,
        "meta_inclination": 99.2547,
        "meta_ra_of_asc_node": 183.2072,
        "meta_arg_of_pericenter": 99.7549,
        "meta_mean_anomaly": 279.2618,
        "meta_ephemeris_type": 0,
        "meta_classification_type": "U",
        "meta_norad_cat_id": 30293,
        "meta_element_set_no": 999,
        "meta_rev_at_epoch": 99050,
        "meta_bstar": 0.00056281397,
        "meta_mean_motion_dot": 2.159e-05,
        "meta_mean_motion_ddot": 0,
        "tle_line1": "1 30293U 99025ZE  25351.79666506  .00002159  00000+0  56281-3 0  9994",
        "tle_line2": "2 30293  99.2547 183.2072 0076785  99.7549 279.2618 14.48972953990504"
      },
      "geometry": {
        "type": "Point",
        "coordinates": [
          0.8453149101835137,
          -18.240297739970355
        ]
      }
    },
    {
      "type": "Feature",
      "properties": {
        "norad_id": 30294,
        "name": "FENGYUN 1C DEB",
        "group": "fengyun-1c-debris",
        "lat": -8.755603460175502,
        "lon": 159.21894245414092,
        "alt_km": 810.2991034477554,
        "timestamp": "2025-12-18T10:51:26.081965+00:00",
        "meta_object_name": "FENGYUN 1C DEB",
        "meta_object_id": "1999-025ZF",
        "meta_epoch": "2025-12-17T18:04:12.436608",
        "meta_mean_motion": 14.34965367,
        "meta_eccentricity": 0.01972935,
        "meta_inclination": 98.3556,
        "meta_ra_of_asc_node": 339.8386,
        "meta_arg_of_pericenter": 294.6495,
        "meta_mean_anomaly": 245.0293,
        "meta_ephemeris_type": 0,
        "meta_classification_type": "U",
        "meta_norad_cat_id": 30294,
        "meta_element_set_no": 999,
        "meta_rev_at_epoch": 98608,
        "meta_bstar": 0.00030823275,
        "meta_mean_motion_dot": 1.042e-05,
        "meta_mean_motion_ddot": 0,
        "tle_line1": "1 30294U 99025ZF  25351.75292172  .00001042  00000+0  30823-3 0  9999",
        "tle_line2": "2 30294  98.3556 339.8386 0197293 294.6495 245.0293 14.34965367986080"
      },
      "geometry": {
        "type": "Point",
        "coordinates": [
          159.21894245414092,
          -8.755603460175502
        ]
      }
    },
    {
      "type": "Feature",
      "properties": {
        "norad_id": 30295,
        "name": "FENGYUN 1C DEB",
        "group": "fengyun-1c-debris",
        "lat": -68.93544642659552,
        "lon": 37.59615553772106,
        "alt_km": 864.5705909909129,
        "timestamp": "2025-12-18T10:51:26.081976+00:00",
        "meta_object_name": "FENGYUN 1C DEB",
        "meta_object_id": "1999-025ZG",
        "meta_epoch": "2025-12-17T13:52:32.672352",
        "meta_mean_motion": 14.25047919,
        "meta_eccentricity": 0.0094434,
        "meta_inclination": 98.5077,
        "meta_ra_of_asc_node": 13.8792,
        "meta_arg_of_pericenter": 68.5095,
        "meta_mean_anomaly": 59.2271,
        "meta_ephemeris_type": 0,
        "meta_classification_type": "U",
        "meta_norad_cat_id": 30295,
        "meta_element_set_no": 999,
        "meta_rev_at_epoch": 98245,
        "meta_bstar": 0.00014110308,
        "meta_mean_motion_dot": 3.05e-06,
        "meta_mean_motion_ddot": 0,
        "tle_line1": "1 30295U 99025ZG  25351.57815593  .00000305  00000+0  14110-3 0  9990",
        "tle_line2": "2 30295  98.5077  13.8792 0094434  68.5095  59.2271 14.25047919982450"
      },
      "geometry": {
        "type": "Point",
        "coordinates": [
          37.59615553772106,
          -68.93544642659552
        ]
      }
    },
    {
      "type": "Feature",
      "properties": {
        "norad_id": 30297,
        "name": "FENGYUN 1C DEB",
        "group": "fengyun-1c-debris",
        "lat": 11.022628698759636,
        "lon": 125.74540799782247,
        "alt_km": 716.1376651100336,
        "timestamp": "2025-12-18T10:51:26.081986+00:00",
        "meta_object_name": "FENGYUN 1C DEB",
        "meta_object_id": "1999-025ZJ",
        "meta_epoch": "2025-12-17T09:19:53.037984",
        "meta_mean_motion": 14.21847238,
        "meta_eccentricity": 0.03796577,
        "meta_inclination": 98.8117,
        "meta_ra_of_asc_node": 302.9489,
        "meta_arg_of_pericenter": 102.2145,
        "meta_mean_anomaly": 21.4544,
        "meta_ephemeris_type": 0,
        "meta_classification_type": "U",
        "meta_norad_cat_id": 30297,
        "meta_element_set_no": 999,
        "meta_rev_at_epoch": 95218,
        "meta_bstar": 0.0010138845,
        "meta_mean_motion_dot": 4.636e-05,
        "meta_mean_motion_ddot": 0,
        "tle_line1": "1 30297U 99025ZJ  25351.38880831  .00004636  00000+0  10139-2 0  9995",
        "tle_line2": "2 30297  98.8117 302.9489 0379657 102.2145  21.4544 14.21847238952189"
      },
      "geometry": {
        "type": "Point",
        "coordinates": [
          125.74540799782247,
          11.022628698759636
        ]
      }
    },
    {
      "type": "Feature",
      "properties": {
        "norad_id": 30298,
        "name": "FENGYUN 1C DEB",
        "group": "fengyun-1c-debris",
        "lat": -10.588331612305842,
        "lon": -98.20995943729022,
        "alt_km": 822.5199773196146,
        "timestamp": "2025-12-18T10:51:26.081997+00:00",
        "meta_object_name": "FENGYUN 1C DEB",
        "meta_object_id": "1999-025ZK",
        "meta_epoch": "2025-12-17T19:20:26.968416",
        "meta_mean_motion": 14.19975464,
        "meta_eccentricity": 0.00481291,
        "meta_inclination": 99.0024,
        "meta_ra_of_asc_node": 82.8308,
        "meta_arg_of_pericenter": 113.9606,
        "meta_mean_anomaly": 13.0049,
        "meta_ephemeris_type": 0,
        "meta_classification_type": "U",
        "meta_norad_cat_id": 30298,
        "meta_element_set_no": 999,
        "meta_rev_at_epoch": 96906,
        "meta_bstar": 0.0013473577,
        "meta_mean_motion_dot": 2.853e-05,
        "meta_mean_motion_ddot": 0,
        "tle_line1": "1 30298U 99025ZK  25351.80586769  .00002853  00000+0  13474-2 0  9990",
        "tle_line2": "2 30298  99.0024  82.8308 0048129 113.9606  13.0049 14.19975464969064"
      },
      "geometry": {
        "type": "Point",
        "coordinates": [
          -98.20995943729022,
          -10.588331612305842
        ]
      }
    }
  ]
}